STARLINK-5364           
1 55491U 23015AU  24312.85394087  .00000081  00000+0  21057-4 0  9998
2 55491  43.0022  78.0934 0000748 303.0820  56.9950 15.02530745 97678
STARLINK-5013           
1 55492U 23015AV  24312.79249673 -.00000258  00000+0 -40505-5 0  9990
2 55492  43.0026 104.4992 0001254 269.5457  90.5242 15.02532014 97361
STARLINK-5362           
1 55493U 23015AW  24312.72934278  .00001503  00000+0  12629-3 0  9992
2 55493  43.0021 104.8842 0000952 260.0247 100.0488 15.02537753 97355
STARLINK-5344           
1 55494U 23015AX  24312.78028292  .00000226  00000+0  31776-4 0  9995
2 55494  43.0025 104.4076 0001179 265.9312  94.1395 15.02534703 97367
STARLINK-5100           
1 55495U 23015AY  24312.77314982  .00003114  00000+0  24559-3 0  9998
2 55495  43.0035  79.2186 0001416 263.0305  97.0376 15.02525636 97653
STARLINK-5363           
1 55497U 23015BA  24312.84565403 -.00001686  00000+0 -10971-3 0  9991
2 55497  43.0047 104.0379 0001777 275.7113  84.3526 15.02544997 97372
STARLINK-5365           
1 55498U 23015BB  24312.70381578 -.00000092  00000+0  83091-5 0  9990
2 55498  43.0037 104.6936 0001802 275.7096  84.3540 15.02533672 97358
STARLINK-5366           
1 55499U 23015BC  24312.76363497 -.00000192  00000+0  86722-6 0  9993
2 55499  43.0024 104.2794 0001231 273.2367  86.8334 15.02532664 98116
STARLINK-5141           
1 55500U 23015BD  24312.77584181  .00001448  00000+0  12225-3 0  9990
2 55500  43.0035 104.3712 0001493 260.5875  99.4799 15.02533304 97368
STARLINK-5367           
1 55501U 23015BE  24312.69938157  .00000106  00000+0  22941-4 0  9995
2 55501  43.0005 104.6527 0001176 266.2249  93.8459 15.02527720 97354
STARLINK-5749           
1 55569U 23020A   24312.92935747 -.00020214  00000+0 -14824-2 0  9996
2 55569  43.0025 129.9279 0001466 256.4661 103.6018 15.02617771 96766
STARLINK-5737           
1 55570U 23020B   24312.66569741  .00002009  00000+0  16377-3 0  9992
2 55570  43.0012 131.3890 0001039 279.9846  80.0879 15.02532292 95655
STARLINK-5739           
1 55571U 23020C   24312.85958977 -.00000159  00000+0  33276-5 0  9991
2 55571  43.0020 130.2654 0001091 282.0528  78.0192 15.02529460 95682
STARLINK-5732           
1 55572U 23020D   24312.85515028 -.00000260  00000+0 -41655-5 0  9992
2 55572  43.0025 130.2326 0001052 283.5048  76.5677 15.02527788 95686
STARLINK-5738           
1 55573U 23020E   24312.85625118  .00001161  00000+0  10102-3 0  9995
2 55573  43.0020 130.2379 0001401 273.7819  86.2864 15.02535101 95689
STARLINK-5747           
1 55574U 23020F   24312.84626591  .00001995  00000+0  16276-3 0  9994
2 55574  43.0019 130.1618 0001299 258.9664 101.1032 15.02532217 95680
STARLINK-5745           
1 55575U 23020G   24312.85180891 -.00000251  00000+0 -34613-5 0  9997
2 55575  43.0049 130.2047 0001812 272.6950  87.3685 15.02530592 95686
STARLINK-5751           
1 55576U 23020H   24312.89217786  .00000986  00000+0  88075-4 0  9999
2 55576  43.0034 103.6616 0001201 279.1379  80.9328 15.02521992 95997
STARLINK-5752           
1 55577U 23020J   24312.84847415  .00001819  00000+0  14968-3 0  9998
2 55577  43.0024 130.1112 0001185 263.3684  96.7023 15.02535951 95681
STARLINK-5713           
1 55578U 23020K   24312.77272453  .00011634  00000+0  86314-3 0  9995
2 55578  42.9999 130.4366 0001715 271.1330  88.9316 15.03047413 95678
STARLINK-5754           
1 55579U 23020L   24312.89498253  .00002022  00000+0  16469-3 0  9992
2 55579  43.0041 129.6681 0001490 281.3462  78.7213 15.02538538 95695
STARLINK-5757           
1 55580U 23020M   24312.88995361  .00000849  00000+0  77900-4 0  9998
2 55580  43.0038 103.6424 0001699 273.4717  86.5931 15.02539948 95999
STARLINK-5753           
1 55581U 23020N   24312.84293534 -.00001697  00000+0 -11055-3 0  9990
2 55581  43.0018 130.1374 0001256 274.5946  85.4753 15.02539645 95682
STARLINK-5741           
1 55582U 23020P   24312.87634407  .00006890  00000+0  52432-3 0  9994
2 55582  43.0032 116.5716 0001167 277.7274  82.3436 15.02557121 95848
STARLINK-5742           
1 55583U 23020Q   24312.90275540 -.00000609  00000+0 -30004-4 0  9994
2 55583  43.0031 129.7262 0001138 259.8772 100.1942 15.02532428 95699
STARLINK-5736           
1 55584U 23020R   24312.76758045  .00002918  00000+0  23100-3 0  9996
2 55584  43.0015 130.4338 0001328 274.5445  85.5246 15.02536966 95679
STARLINK-5769           
1 55585U 23020S   24312.73243963  .00000766  00000+0  71769-4 0  9996
2 55585  43.0024 118.0714 0001278 267.0759  92.9937 15.02534037 95811
STARLINK-5767           
1 55586U 23020T   24312.82628490  .00001016  00000+0  90261-4 0  9996
2 55586  43.0043 130.0136 0001419 267.2443  92.8237 15.02530354 95689
STARLINK-5727           
1 55587U 23020U   24312.89830693  .00000470  00000+0  49890-4 0  9999
2 55587  43.0023 129.6303 0001322 270.8351  89.2339 15.02532406 95693
STARLINK-5728           
1 55588U 23020V   24312.88608804 -.00012962  00000+0 -94548-3 0  9996
2 55588  43.0037 129.6030 0001538 258.3934 101.6735 15.02564657 95695
STARLINK-5697           
1 55589U 23020W   24312.89166157 -.00001472  00000+0 -93976-4 0  9997
2 55589  43.0018 129.6375 0000450 290.7630  69.3164 15.02525187 95693
STARLINK-5762           
1 55590U 23020X   24312.74649241  .00001021  00000+0  90692-4 0  9993
2 55590  43.0026 130.2742 0001298 266.1011  93.9683 15.02528362 95676
STARLINK-5760           
1 55591U 23020Y   24312.55704154  .00000736  00000+0  69562-4 0  9992
2 55591  43.0011 131.4333 0001183 269.5178  90.5529 15.02537474 95647
STARLINK-5759           
1 55592U 23020Z   24312.80852581  .00000776  00000+0  72539-4 0  9991
2 55592  43.0012 129.8841 0001175 267.9700  92.1008 15.02536120 95689
STARLINK-5703           
1 55593U 23020AA  24312.61686677  .00007683  00000+0  58379-3 0  9991
2 55593  43.0018 131.0250 0000969 290.6888  69.3850 15.02497562 95659
STARLINK-5750           
1 55594U 23020AB  24312.53928277  .00001895  00000+0  15530-3 0  9999
2 55594  43.0030 131.3043 0001423 266.6586  93.4093 15.02534801 95645
STARLINK-5740           
1 55595U 23020AC  24312.81185571  .00000617  00000+0  60755-4 0  9994
2 55595  43.0024 129.9028 0001249 272.7645  87.3055 15.02533986 95682
STARLINK-5729           
1 55596U 23020AD  24312.86945740  .00000269  00000+0  34981-4 0  9997
2 55596  43.0016 129.4829 0001168 275.3891  84.6818 15.02536475 95694
STARLINK-5743           
1 55597U 23020AE  24312.86206560  .00001398  00000+0  11858-3 0  9999
2 55597  43.0033 117.3214 0001360 262.1529  97.9159 15.02533923 95830
STARLINK-5756           
1 55598U 23020AF  24312.87205083 -.00000545  00000+0 -25264-4 0  9992
2 55598  43.0024 117.3626 0001471 265.6843  94.3832 15.02529780 95833
STARLINK-5761           
1 55599U 23020AG  24312.80221922 -.00017503  00000+0 -12813-2 0  9992
2 55599  43.0019 117.6989 0001584 253.1831 106.8837 15.02610708 95821
STARLINK-5755           
1 55600U 23020AH  24312.52412595 -.00000333  00000+0 -95597-5 0  9998
2 55600  43.0016 119.0714 0001076 273.9280  86.1439 15.02534405 95789
STARLINK-5744           
1 55601U 23020AJ  24312.73315863 -.00004643  00000+0 -32889-3 0  9993
2 55601  43.0015 130.1753 0001345 273.4497  86.6192 15.02531147 95679
STARLINK-5764           
1 55602U 23020AK  24312.86650855 -.00000771  00000+0 -42038-4 0  9997
2 55602  43.0028 117.3211 0001293 266.7107  93.3588 15.02526980 95836
STARLINK-5735           
1 55603U 23020AL  24312.85985053  .00000292  00000+0  36681-4 0  9991
2 55603  43.0038 117.2933 0001064 276.9564  83.1157 15.02527375 95832
STARLINK-5748           
1 55604U 23020AM  24312.69606411  .00001374  00000+0  11677-3 0  9991
2 55604  43.0025 104.7730 0001367 270.3365  89.7321 15.02536305 95960
STARLINK-5725           
1 55605U 23020AN  24312.52301339  .00000889  00000+0  80872-4 0  9999
2 55605  43.0013 119.0604 0001129 277.5852  82.4862 15.02533363 95784
STARLINK-5700           
1 55607U 23020AQ  24312.58282663  .00004399  00000+0  34047-3 0  9997
2 55607  43.0053 118.6526 0002713 267.9903  92.0628 15.02542706 95797
STARLINK-5726           
1 55608U 23020AR  24312.58060632  .00001772  00000+0  14619-3 0  9993
2 55608  43.0017 118.6357 0001004 269.8917  90.1810 15.02539864 95791
STARLINK-5719           
1 55609U 23020AS  24312.85207915  .00000241  00000+0  32940-4 0  9999
2 55609  43.0030 117.2325 0001364 268.0280  92.0406 15.02529050 95833
STARLINK-5722           
1 55610U 23020AT  24312.77227074  .00001053  00000+0  92967-4 0  9997
2 55610  43.0012 117.4932 0001048 277.3920  82.6803 15.02540953 95824
STARLINK-5730           
1 55611U 23020AU  24312.90302775 -.00001022  00000+0 -60635-4 0  9990
2 55611  43.0025 116.7568 0000141 260.0801 100.0026 15.02524632 95846
STARLINK-5734           
1 55612U 23020AV  24312.76894681  .00000590  00000+0  58779-4 0  9990
2 55612  43.0029 117.4699 0001288 269.4171  90.6524 15.02531885 95823
STARLINK-5715           
1 55613U 23020AW  24312.84319936  .00001121  00000+0  98047-4 0  9998
2 55613  43.0038 117.1659 0001279 265.6603  94.4093 15.02530403 95834
STARLINK-5714           
1 55614U 23020AX  24312.70715795  .00000231  00000+0  32168-4 0  9990
2 55614  43.0026 104.8187 0001366 262.7188  97.3499 15.02536608 95963
STARLINK-5712           
1 55615U 23020AY  24312.89857456  .00001999  00000+0  16305-3 0  9998
2 55615  43.0022 116.7217 0001520 264.9341  95.1328 15.02533760 95843
STARLINK-5710           
1 55616U 23020AZ  24312.82321572  .00000834  00000+0  76774-4 0  9991
2 55616  43.0029 117.0160 0001161 268.9856  91.0853 15.02535552 95836
STARLINK-5721           
1 55617U 23020BA  24312.89525715 -.00001686  00000+0 -10979-3 0  9996
2 55617  43.0019 116.6972 0000881 266.8383  93.2358 15.02521415 95840
STARLINK-5717           
1 55618U 23020BB  24312.75563070  .00000756  00000+0  71056-4 0  9997
2 55618  43.0036 117.3701 0001255 274.7664  85.3035 15.02529643 95827
